STARLINK-31120          
1 58778U 24011P   26068.22184650 -.00003842  00000+0 -11782-3 0  9993
2 58778  53.1620  16.1945 0000897  88.4258 271.6845 15.30163282120196
2025-313BD              
1 67299U 25313BD  26068.62968741  .00081010  00000+0  27634-2 0  9995
2 67299  97.3970 145.2850 0007287 333.4514  26.6352 15.30002360 10838
